{
"type": "FeatureCollection",
"name": "trees",
"crs": { "type": "name", "properties": { "name": "urn:ogc:def:crs:OGC:1.3:CRS84" } },
"features": [
{ "type": "Feature", "properties": { "fid": 1, "tree_id": 1, "crown_size": 17.82 }, "geometry": { "type": "Point", "coordinates": [ 122.57951927363807, 10.584954996142955 ] } },
{ "type": "Feature", "properties": { "fid": 2, "tree_id": 2, "crown_size": 9.91 }, "geometry": { "type": "Point", "coordinates": [ 122.579526288843965, 10.584749374887227 ] } },
{ "type": "Feature", "properties": { "fid": 3, "tree_id": 3, "crown_size": 9.66 }, "geometry": { "type": "Point", "coordinates": [ 122.579583685983209, 10.584805168473299 ] } },
{ "type": "Feature", "properties": { "fid": 4, "tree_id": 4, "crown_size": 17.15 }, "geometry": { "type": "Point", "coordinates": [ 122.579803389477462, 10.584795608337078 ] } },
{ "type": "Feature", "properties": { "fid": 5, "tree_id": 5, "crown_size": 11.37 }, "geometry": { "type": "Point", "coordinates": [ 122.58002532508246, 10.584974273128603 ] } },
{ "type": "Feature", "properties": { "fid": 6, "tree_id": 6, "crown_size": 16.5 }, "geometry": { "type": "Point", "coordinates": [ 122.579784257097685, 10.584618197230542 ] } },
{ "type": "Feature", "properties": { "fid": 7, "tree_id": 7, "crown_size": 9.73 }, "geometry": { "type": "Point", "coordinates": [ 122.58002532508246, 10.584753606423602 ] } },
{ "type": "Feature", "properties": { "fid": 8, "tree_id": 8, "crown_size": 13.63 }, "geometry": { "type": "Point", "coordinates": [ 122.580135017393062, 10.584818803421156 ] } },
{ "type": "Feature", "properties": { "fid": 9, "tree_id": 9, "crown_size": 20.36 }, "geometry": { "type": "Point", "coordinates": [ 122.579850582680848, 10.584487803136263 ] } },
{ "type": "Feature", "properties": { "fid": 10, "tree_id": 10, "crown_size": 14.73 }, "geometry": { "type": "Point", "coordinates": [ 122.580002366226836, 10.584563030505116 ] } },
{ "type": "Feature", "properties": { "fid": 11, "tree_id": 11, "crown_size": 16.33 }, "geometry": { "type": "Point", "coordinates": [ 122.580462818832657, 10.584921614042976 ] } },
{ "type": "Feature", "properties": { "fid": 12, "tree_id": 12, "crown_size": 13.32 }, "geometry": { "type": "Point", "coordinates": [ 122.579950071055507, 10.584378723418645 ] } },
{ "type": "Feature", "properties": { "fid": 13, "tree_id": 13, "crown_size": 11.11 }, "geometry": { "type": "Point", "coordinates": [ 122.580090375173626, 10.584437651546777 ] } },
{ "type": "Feature", "properties": { "fid": 14, "tree_id": 14, "crown_size": 20.02 }, "geometry": { "type": "Point", "coordinates": [ 122.58032984879344, 10.584606286233846 ] } },
{ "type": "Feature", "properties": { "fid": 15, "tree_id": 15, "crown_size": 11.29 }, "geometry": { "type": "Point", "coordinates": [ 122.580773401130656, 10.584824132021305 ] } },
{ "type": "Feature", "properties": { "fid": 16, "tree_id": 16, "crown_size": 15.09 }, "geometry": { "type": "Point", "coordinates": [ 122.580024049590676, 10.584253657832583 ] } },
{ "type": "Feature", "properties": { "fid": 17, "tree_id": 17, "crown_size": 18.02 }, "geometry": { "type": "Point", "coordinates": [ 122.580150323297005, 10.584330139049163 ] } },
{ "type": "Feature", "properties": { "fid": 18, "tree_id": 18, "crown_size": 21.18 }, "geometry": { "type": "Point", "coordinates": [ 122.580397768741662, 10.58449313174216 ] } },
{ "type": "Feature", "properties": { "fid": 19, "tree_id": 19, "crown_size": 11.11 }, "geometry": { "type": "Point", "coordinates": [ 122.580841002205744, 10.584758308130629 ] } },
{ "type": "Feature", "properties": { "fid": 20, "tree_id": 20, "crown_size": 21.82 }, "geometry": { "type": "Point", "coordinates": [ 122.58013310415528, 10.584126398061077 ] } },
{ "type": "Feature", "properties": { "fid": 21, "tree_id": 21, "crown_size": 11.76 }, "geometry": { "type": "Point", "coordinates": [ 122.58023896998985, 10.584216671007889 ] } },
{ "type": "Feature", "properties": { "fid": 22, "tree_id": 22, "crown_size": 9.47 }, "geometry": { "type": "Point", "coordinates": [ 122.580900950328981, 10.58468558838735 ] } },
{ "type": "Feature", "properties": { "fid": 23, "tree_id": 23, "crown_size": 19.89 }, "geometry": { "type": "Point", "coordinates": [ 122.580329529920618, 10.58410508361143 ] } },
{ "type": "Feature", "properties": { "fid": 24, "tree_id": 24, "crown_size": 13.78 }, "geometry": { "type": "Point", "coordinates": [ 122.580446875182986, 10.584179057283286 ] } },
{ "type": "Feature", "properties": { "fid": 25, "tree_id": 25, "crown_size": 18.52 }, "geometry": { "type": "Point", "coordinates": [ 122.580574424381268, 10.584260553680769 ] } },
{ "type": "Feature", "properties": { "fid": 26, "tree_id": 26, "crown_size": 9.35 }, "geometry": { "type": "Point", "coordinates": [ 122.580947824659319, 10.58462697375413 ] } },
{ "type": "Feature", "properties": { "fid": 27, "tree_id": 27, "crown_size": 12.04 }, "geometry": { "type": "Point", "coordinates": [ 122.581005859544504, 10.584570553240985 ] } },
{ "type": "Feature", "properties": { "fid": 28, "tree_id": 28, "crown_size": 23.03 }, "geometry": { "type": "Point", "coordinates": [ 122.580275002638388, 10.583911686257888 ] } },
{ "type": "Feature", "properties": { "fid": 29, "tree_id": 29, "crown_size": 20.34 }, "geometry": { "type": "Point", "coordinates": [ 122.580411480280574, 10.583960584141613 ] } },
{ "type": "Feature", "properties": { "fid": 30, "tree_id": 30, "crown_size": 20.52 }, "geometry": { "type": "Point", "coordinates": [ 122.580539029478857, 10.584055872302887 ] } },
{ "type": "Feature", "properties": { "fid": 31, "tree_id": 31, "crown_size": 19.83 }, "geometry": { "type": "Point", "coordinates": [ 122.580665303185114, 10.584138622524181 ] } },
{ "type": "Feature", "properties": { "fid": 32, "tree_id": 32, "crown_size": 21.93 }, "geometry": { "type": "Point", "coordinates": [ 122.580789025907478, 10.584210088606417 ] } },
{ "type": "Feature", "properties": { "fid": 33, "tree_id": 33, "crown_size": 19.52 }, "geometry": { "type": "Point", "coordinates": [ 122.580905403453286, 10.584312803434475 ] } },
{ "type": "Feature", "properties": { "fid": 34, "tree_id": 34, "crown_size": 12.62 }, "geometry": { "type": "Point", "coordinates": [ 122.581012497429839, 10.58443449379997 ] } },
{ "type": "Feature", "properties": { "fid": 35, "tree_id": 35, "crown_size": 12.17 }, "geometry": { "type": "Point", "coordinates": [ 122.580354213354013, 10.583707248278586 ] } },
{ "type": "Feature", "properties": { "fid": 36, "tree_id": 36, "crown_size": 9.88 }, "geometry": { "type": "Point", "coordinates": [ 122.580447552140882, 10.583762298796719 ] } },
{ "type": "Feature", "properties": { "fid": 37, "tree_id": 37, "crown_size": 12.29 }, "geometry": { "type": "Point", "coordinates": [ 122.580532048305798, 10.583822178296449 ] } },
{ "type": "Feature", "properties": { "fid": 38, "tree_id": 38, "crown_size": 12.94 }, "geometry": { "type": "Point", "coordinates": [ 122.580618509497839, 10.583878194592067 ] } },
{ "type": "Feature", "properties": { "fid": 39, "tree_id": 39, "crown_size": 11.89 }, "geometry": { "type": "Point", "coordinates": [ 122.580715778338885, 10.583949663644033 ] } },
{ "type": "Feature", "properties": { "fid": 40, "tree_id": 40, "crown_size": 11.91 }, "geometry": { "type": "Point", "coordinates": [ 122.580809117125781, 10.584002782523211 ] } },
{ "type": "Feature", "properties": { "fid": 41, "tree_id": 41, "crown_size": 9.48 }, "geometry": { "type": "Point", "coordinates": [ 122.581072430755896, 10.584368336742171 ] } },
{ "type": "Feature", "properties": { "fid": 42, "tree_id": 42, "crown_size": 6.29 }, "geometry": { "type": "Point", "coordinates": [ 122.581003654807688, 10.584290107210167 ] } },
{ "type": "Feature", "properties": { "fid": 43, "tree_id": 43, "crown_size": 9.85 }, "geometry": { "type": "Point", "coordinates": [ 122.581084220918441, 10.584284312429224 ] } },
{ "type": "Feature", "properties": { "fid": 44, "tree_id": 44, "crown_size": 7.98 }, "geometry": { "type": "Point", "coordinates": [ 122.58097319688774, 10.584231193598812 ] } },
{ "type": "Feature", "properties": { "fid": 45, "tree_id": 45, "crown_size": 10.06 }, "geometry": { "type": "Point", "coordinates": [ 122.580974179401309, 10.584180006353531 ] } },
{ "type": "Feature", "properties": { "fid": 46, "tree_id": 46, "crown_size": 11.19 }, "geometry": { "type": "Point", "coordinates": [ 122.581076360810101, 10.584184835339299 ] } },
{ "type": "Feature", "properties": { "fid": 47, "tree_id": 47, "crown_size": 12.61 }, "geometry": { "type": "Point", "coordinates": [ 122.58041414668007, 10.583615980292516 ] } },
{ "type": "Feature", "properties": { "fid": 48, "tree_id": 48, "crown_size": 11.37 }, "geometry": { "type": "Point", "coordinates": [ 122.580515345575307, 10.583676825619566 ] } },
{ "type": "Feature", "properties": { "fid": 49, "tree_id": 49, "crown_size": 11.05 }, "geometry": { "type": "Point", "coordinates": [ 122.580597876713185, 10.583734773538865 ] } },
{ "type": "Feature", "properties": { "fid": 50, "tree_id": 50, "crown_size": 11.63 }, "geometry": { "type": "Point", "coordinates": [ 122.580691215500053, 10.583795618842343 ] } },
{ "type": "Feature", "properties": { "fid": 51, "tree_id": 51, "crown_size": 11.99 }, "geometry": { "type": "Point", "coordinates": [ 122.580776694178567, 10.58386225892278 ] } },
{ "type": "Feature", "properties": { "fid": 52, "tree_id": 52, "crown_size": 10.76 }, "geometry": { "type": "Point", "coordinates": [ 122.580920141156199, 10.584025478768767 ] } },
{ "type": "Feature", "properties": { "fid": 53, "tree_id": 53, "crown_size": 5.51 }, "geometry": { "type": "Point", "coordinates": [ 122.580932422575472, 10.583959804521664 ] } },
{ "type": "Feature", "properties": { "fid": 54, "tree_id": 54, "crown_size": 13.06 }, "geometry": { "type": "Point", "coordinates": [ 122.580483413884949, 10.583524229379698 ] } },
{ "type": "Feature", "properties": { "fid": 55, "tree_id": 55, "crown_size": 11.45 }, "geometry": { "type": "Point", "coordinates": [ 122.580576752671817, 10.58358024572974 ] } },
{ "type": "Feature", "properties": { "fid": 56, "tree_id": 56, "crown_size": 11.74 }, "geometry": { "type": "Point", "coordinates": [ 122.580667143918035, 10.58363626206955 ] } },
{ "type": "Feature", "properties": { "fid": 57, "tree_id": 57, "crown_size": 12.65 }, "geometry": { "type": "Point", "coordinates": [ 122.580753605110047, 10.583707731177904 ] } },
{ "type": "Feature", "properties": { "fid": 58, "tree_id": 58, "crown_size": 11.15 }, "geometry": { "type": "Point", "coordinates": [ 122.580842031329198, 10.583768576486751 ] } },
{ "type": "Feature", "properties": { "fid": 59, "tree_id": 59, "crown_size": 13.75 }, "geometry": { "type": "Point", "coordinates": [ 122.580940282683812, 10.583836182371307 ] } },
{ "type": "Feature", "properties": { "fid": 60, "tree_id": 60, "crown_size": 8.09 }, "geometry": { "type": "Point", "coordinates": [ 122.581081764634405, 10.583964633510901 ] } },
{ "type": "Feature", "properties": { "fid": 61, "tree_id": 61, "crown_size": 12.1 }, "geometry": { "type": "Point", "coordinates": [ 122.580554154860224, 10.583434410038439 ] } },
{ "type": "Feature", "properties": { "fid": 62, "tree_id": 62, "crown_size": 10.83 }, "geometry": { "type": "Point", "coordinates": [ 122.580640616052293, 10.583498152799462 ] } },
{ "type": "Feature", "properties": { "fid": 63, "tree_id": 63, "crown_size": 12.41 }, "geometry": { "type": "Point", "coordinates": [ 122.580729042271415, 10.58354837435942 ] } },
{ "type": "Feature", "properties": { "fid": 64, "tree_id": 64, "crown_size": 12.91 }, "geometry": { "type": "Point", "coordinates": [ 122.580815503463512, 10.583615980292523 ] } },
{ "type": "Feature", "properties": { "fid": 65, "tree_id": 65, "crown_size": 12.57 }, "geometry": { "type": "Point", "coordinates": [ 122.580901964655553, 10.583683586210725 ] } },
{ "type": "Feature", "properties": { "fid": 66, "tree_id": 66, "crown_size": 12.29 }, "geometry": { "type": "Point", "coordinates": [ 122.581003163550761, 10.583738636733111 ] } },
{ "type": "Feature", "properties": { "fid": 67, "tree_id": 67, "crown_size": 10.92 }, "geometry": { "type": "Point", "coordinates": [ 122.581131872825324, 10.583886403875898 ] } },
{ "type": "Feature", "properties": { "fid": 68, "tree_id": 68, "crown_size": 6.9 }, "geometry": { "type": "Point", "coordinates": [ 122.581095519824117, 10.58374588022216 ] } },
{ "type": "Feature", "properties": { "fid": 69, "tree_id": 69, "crown_size": 8.34 }, "geometry": { "type": "Point", "coordinates": [ 122.581189841124498, 10.583814451910037 ] } },
{ "type": "Feature", "properties": { "fid": 70, "tree_id": 70, "crown_size": 10.12 }, "geometry": { "type": "Point", "coordinates": [ 122.580611140645843, 10.583347005170351 ] } },
{ "type": "Feature", "properties": { "fid": 71, "tree_id": 71, "crown_size": 12.0 }, "geometry": { "type": "Point", "coordinates": [ 122.580702514405644, 10.583401089953545 ] } },
{ "type": "Feature", "properties": { "fid": 72, "tree_id": 72, "crown_size": 10.83 }, "geometry": { "type": "Point", "coordinates": [ 122.580804695814408, 10.583466764320312 ] } },
{ "type": "Feature", "properties": { "fid": 73, "tree_id": 73, "crown_size": 12.43 }, "geometry": { "type": "Point", "coordinates": [ 122.580884279411649, 10.583526643877756 ] } },
{ "type": "Feature", "properties": { "fid": 74, "tree_id": 74, "crown_size": 12.63 }, "geometry": { "type": "Point", "coordinates": [ 122.580974670657838, 10.583589420820582 ] } },
{ "type": "Feature", "properties": { "fid": 75, "tree_id": 75, "crown_size": 12.46 }, "geometry": { "type": "Point", "coordinates": [ 122.581069974471816, 10.583650266152906 ] } },
{ "type": "Feature", "properties": { "fid": 76, "tree_id": 76, "crown_size": 5.44 }, "geometry": { "type": "Point", "coordinates": [ 122.581143662987785, 10.58370652392958 ] } },
{ "type": "Feature", "properties": { "fid": 77, "tree_id": 77, "crown_size": 10.21 }, "geometry": { "type": "Point", "coordinates": [ 122.581243879369495, 10.583744190074725 ] } },
{ "type": "Feature", "properties": { "fid": 78, "tree_id": 78, "crown_size": 12.85 }, "geometry": { "type": "Point", "coordinates": [ 122.580683846648242, 10.583249700826554 ] } },
{ "type": "Feature", "properties": { "fid": 79, "tree_id": 79, "crown_size": 10.77 }, "geometry": { "type": "Point", "coordinates": [ 122.580764412758995, 10.583311512026183 ] } },
{ "type": "Feature", "properties": { "fid": 80, "tree_id": 80, "crown_size": 12.66 }, "geometry": { "type": "Point", "coordinates": [ 122.58086266411361, 10.583381049610873 ] } },
{ "type": "Feature", "properties": { "fid": 81, "tree_id": 81, "crown_size": 10.21 }, "geometry": { "type": "Point", "coordinates": [ 122.580947160278598, 10.583447689781403 ] } },
{ "type": "Feature", "properties": { "fid": 82, "tree_id": 82, "crown_size": 10.48 }, "geometry": { "type": "Point", "coordinates": [ 122.581038534038299, 10.583503706145425 ] } },
{ "type": "Feature", "properties": { "fid": 83, "tree_id": 83, "crown_size": 10.8 }, "geometry": { "type": "Point", "coordinates": [ 122.581133837852249, 10.583561654097444 ] } },
{ "type": "Feature", "properties": { "fid": 84, "tree_id": 84, "crown_size": 7.22 }, "geometry": { "type": "Point", "coordinates": [ 122.581192788665035, 10.583611875647009 ] } },
{ "type": "Feature", "properties": { "fid": 85, "tree_id": 85, "crown_size": 9.94 }, "geometry": { "type": "Point", "coordinates": [ 122.581300373898301, 10.583665960383483 ] } },
{ "type": "Feature", "properties": { "fid": 86, "tree_id": 86, "crown_size": 12.59 }, "geometry": { "type": "Point", "coordinates": [ 122.580742551832643, 10.583163261706181 ] } },
{ "type": "Feature", "properties": { "fid": 87, "tree_id": 87, "crown_size": 13.0 }, "geometry": { "type": "Point", "coordinates": [ 122.580839820673674, 10.583221209722533 ] } },
{ "type": "Feature", "properties": { "fid": 88, "tree_id": 88, "crown_size": 12.44 }, "geometry": { "type": "Point", "coordinates": [ 122.580919404270915, 10.583288815727771 ] } },
{ "type": "Feature", "properties": { "fid": 89, "tree_id": 89, "crown_size": 11.4 }, "geometry": { "type": "Point", "coordinates": [ 122.581018638139099, 10.583354490118582 ] } },
{ "type": "Feature", "properties": { "fid": 90, "tree_id": 90, "crown_size": 12.08 }, "geometry": { "type": "Point", "coordinates": [ 122.581101169276934, 10.583408574900458 ] } },
{ "type": "Feature", "properties": { "fid": 91, "tree_id": 91, "crown_size": 11.62 }, "geometry": { "type": "Point", "coordinates": [ 122.581193525550262, 10.583473283466237 ] } },
{ "type": "Feature", "properties": { "fid": 92, "tree_id": 92, "crown_size": 5.74 }, "geometry": { "type": "Point", "coordinates": [ 122.581260582099802, 10.583524953729107 ] } },
{ "type": "Feature", "properties": { "fid": 93, "tree_id": 93, "crown_size": 6.12 }, "geometry": { "type": "Point", "coordinates": [ 122.581288583735869, 10.583479078262508 ] } },
{ "type": "Feature", "properties": { "fid": 94, "tree_id": 94, "crown_size": 8.47 }, "geometry": { "type": "Point", "coordinates": [ 122.581352938373101, 10.58360125185836 ] } },
{ "type": "Feature", "properties": { "fid": 95, "tree_id": 95, "crown_size": 10.95 }, "geometry": { "type": "Point", "coordinates": [ 122.580811573409235, 10.583079719963335 ] } },
{ "type": "Feature", "properties": { "fid": 96, "tree_id": 96, "crown_size": 12.11 }, "geometry": { "type": "Point", "coordinates": [ 122.580904912196104, 10.583124146788952 ] } },
{ "type": "Feature", "properties": { "fid": 97, "tree_id": 97, "crown_size": 11.57 }, "geometry": { "type": "Point", "coordinates": [ 122.580993338415283, 10.583197547617178 ] } },
{ "type": "Feature", "properties": { "fid": 98, "tree_id": 98, "crown_size": 13.17 }, "geometry": { "type": "Point", "coordinates": [ 122.581080782120893, 10.583261290427433 ] } },
{ "type": "Feature", "properties": { "fid": 99, "tree_id": 99, "crown_size": 12.91 }, "geometry": { "type": "Point", "coordinates": [ 122.581162330745215, 10.583323101624726 ] } },
{ "type": "Feature", "properties": { "fid": 100, "tree_id": 100, "crown_size": 12.07 }, "geometry": { "type": "Point", "coordinates": [ 122.58126451215395, 10.583394570806066 ] } },
{ "type": "Feature", "properties": { "fid": 101, "tree_id": 101, "crown_size": 7.8 }, "geometry": { "type": "Point", "coordinates": [ 122.581400099023313, 10.583516261535962 ] } },
{ "type": "Feature", "properties": { "fid": 102, "tree_id": 102, "crown_size": 7.38 }, "geometry": { "type": "Point", "coordinates": [ 122.581423679348418, 10.583430305390486 ] } },
{ "type": "Feature", "properties": { "fid": 103, "tree_id": 103, "crown_size": 10.99 }, "geometry": { "type": "Point", "coordinates": [ 122.581048359173764, 10.583110142681573 ] } },
{ "type": "Feature", "properties": { "fid": 104, "tree_id": 104, "crown_size": 6.77 }, "geometry": { "type": "Point", "coordinates": [ 122.581229141666242, 10.583255012727014 ] } },
{ "type": "Feature", "properties": { "fid": 105, "tree_id": 105, "crown_size": 11.95 }, "geometry": { "type": "Point", "coordinates": [ 122.580376319908254, 10.585416626641882 ] } },
{ "type": "Feature", "properties": { "fid": 106, "tree_id": 106, "crown_size": 10.05 }, "geometry": { "type": "Point", "coordinates": [ 122.580439855784206, 10.585471354922079 ] } },
{ "type": "Feature", "properties": { "fid": 107, "tree_id": 107, "crown_size": 18.78 }, "geometry": { "type": "Point", "coordinates": [ 122.580644873610822, 10.585537028845419 ] } },
{ "type": "Feature", "properties": { "fid": 108, "tree_id": 108, "crown_size": 16.71 }, "geometry": { "type": "Point", "coordinates": [ 122.580897052087636, 10.585703789038533 ] } },
{ "type": "Feature", "properties": { "fid": 109, "tree_id": 109, "crown_size": 16.8 }, "geometry": { "type": "Point", "coordinates": [ 122.581017573749278, 10.58578234014054 ] } },
{ "type": "Feature", "properties": { "fid": 110, "tree_id": 110, "crown_size": 14.12 }, "geometry": { "type": "Point", "coordinates": [ 122.581125016798779, 10.585854777906606 ] } },
{ "type": "Feature", "properties": { "fid": 111, "tree_id": 111, "crown_size": 14.3 }, "geometry": { "type": "Point", "coordinates": [ 122.58087935517014, 10.585509034947977 ] } },
{ "type": "Feature", "properties": { "fid": 112, "tree_id": 112, "crown_size": 14.55 }, "geometry": { "type": "Point", "coordinates": [ 122.581099414346156, 10.585661233802766 ] } },
{ "type": "Feature", "properties": { "fid": 113, "tree_id": 113, "crown_size": 13.01 }, "geometry": { "type": "Point", "coordinates": [ 122.580950676288126, 10.585429939450291 ] } },
{ "type": "Feature", "properties": { "fid": 114, "tree_id": 114, "crown_size": 19.04 }, "geometry": { "type": "Point", "coordinates": [ 122.581111605990245, 10.585443122034658 ] } },
{ "type": "Feature", "properties": { "fid": 115, "tree_id": 115, "crown_size": 12.28 }, "geometry": { "type": "Point", "coordinates": [ 122.581176069308412, 10.585549631303442 ] } },
{ "type": "Feature", "properties": { "fid": 116, "tree_id": 116, "crown_size": 20.45 }, "geometry": { "type": "Point", "coordinates": [ 122.581265068310316, 10.585646703009846 ] } },
{ "type": "Feature", "properties": { "fid": 117, "tree_id": 117, "crown_size": 14.51 }, "geometry": { "type": "Point", "coordinates": [ 122.580923702275683, 10.585188308570597 ] } },
{ "type": "Feature", "properties": { "fid": 118, "tree_id": 118, "crown_size": 16.26 }, "geometry": { "type": "Point", "coordinates": [ 122.581369916449574, 10.585491508106497 ] } },
{ "type": "Feature", "properties": { "fid": 119, "tree_id": 119, "crown_size": 21.04 }, "geometry": { "type": "Point", "coordinates": [ 122.581491223308419, 10.585335114707441 ] } },
{ "type": "Feature", "properties": { "fid": 120, "tree_id": 120, "crown_size": 13.03 }, "geometry": { "type": "Point", "coordinates": [ 122.581052324120961, 10.584979184605304 ] } },
{ "type": "Feature", "properties": { "fid": 121, "tree_id": 121, "crown_size": 12.86 }, "geometry": { "type": "Point", "coordinates": [ 122.581344923579266, 10.585124193215314 ] } },
{ "type": "Feature", "properties": { "fid": 122, "tree_id": 122, "crown_size": 16.11 }, "geometry": { "type": "Point", "coordinates": [ 122.581583879803588, 10.585246431825027 ] } },
{ "type": "Feature", "properties": { "fid": 123, "tree_id": 123, "crown_size": 16.21 }, "geometry": { "type": "Point", "coordinates": [ 122.581144371033915, 10.584834775136276 ] } },
{ "type": "Feature", "properties": { "fid": 124, "tree_id": 124, "crown_size": 16.76 }, "geometry": { "type": "Point", "coordinates": [ 122.581318711544512, 10.584918664462668 ] } },
{ "type": "Feature", "properties": { "fid": 125, "tree_id": 125, "crown_size": 16.74 }, "geometry": { "type": "Point", "coordinates": [ 122.581521565514933, 10.585055762974335 ] } },
{ "type": "Feature", "properties": { "fid": 126, "tree_id": 126, "crown_size": 15.14 }, "geometry": { "type": "Point", "coordinates": [ 122.581636166969432, 10.585132461732652 ] } },
{ "type": "Feature", "properties": { "fid": 127, "tree_id": 127, "crown_size": 16.21 }, "geometry": { "type": "Point", "coordinates": [ 122.581235061878687, 10.584689046770949 ] } },
{ "type": "Feature", "properties": { "fid": 128, "tree_id": 128, "crown_size": 13.41 }, "geometry": { "type": "Point", "coordinates": [ 122.581389286176545, 10.584795706104092 ] } },
{ "type": "Feature", "properties": { "fid": 129, "tree_id": 129, "crown_size": 16.0 }, "geometry": { "type": "Point", "coordinates": [ 122.581495353480165, 10.584872404927468 ] } },
{ "type": "Feature", "properties": { "fid": 130, "tree_id": 130, "crown_size": 13.66 }, "geometry": { "type": "Point", "coordinates": [ 122.58161970824996, 10.584937119544763 ] } },
{ "type": "Feature", "properties": { "fid": 131, "tree_id": 131, "crown_size": 13.14 }, "geometry": { "type": "Point", "coordinates": [ 122.581712364745101, 10.584999437311474 ] } },
{ "type": "Feature", "properties": { "fid": 132, "tree_id": 132, "crown_size": 21.28 }, "geometry": { "type": "Point", "coordinates": [ 122.581596544126171, 10.584742975651901 ] } },
{ "type": "Feature", "properties": { "fid": 133, "tree_id": 133, "crown_size": 11.2 }, "geometry": { "type": "Point", "coordinates": [ 122.581686762292478, 10.584838849194607 ] } },
{ "type": "Feature", "properties": { "fid": 134, "tree_id": 134, "crown_size": 6.53 }, "geometry": { "type": "Point", "coordinates": [ 122.581752597170606, 10.584882591488508 ] } },
{ "type": "Feature", "properties": { "fid": 135, "tree_id": 135, "crown_size": 6.94 }, "geometry": { "type": "Point", "coordinates": [ 122.581823308706362, 10.584910155122556 ] } },
{ "type": "Feature", "properties": { "fid": 136, "tree_id": 136, "crown_size": 5.99 }, "geometry": { "type": "Point", "coordinates": [ 122.581258226002447, 10.584559018207889 ] } },
{ "type": "Feature", "properties": { "fid": 137, "tree_id": 137, "crown_size": 5.95 }, "geometry": { "type": "Point", "coordinates": [ 122.58132284171613, 10.584579990560496 ] } },
{ "type": "Feature", "properties": { "fid": 138, "tree_id": 138, "crown_size": 5.65 }, "geometry": { "type": "Point", "coordinates": [ 122.58126919848209, 10.584510482186339 ] } },
{ "type": "Feature", "properties": { "fid": 139, "tree_id": 139, "crown_size": 6.26 }, "geometry": { "type": "Point", "coordinates": [ 122.58132284171613, 10.584526061650884 ] } },
{ "type": "Feature", "properties": { "fid": 140, "tree_id": 140, "crown_size": 19.73 }, "geometry": { "type": "Point", "coordinates": [ 122.581555702118408, 10.584579391350447 ] } },
{ "type": "Feature", "properties": { "fid": 141, "tree_id": 141, "crown_size": 15.06 }, "geometry": { "type": "Point", "coordinates": [ 122.581897068153083, 10.58482027369805 ] } },
{ "type": "Feature", "properties": { "fid": 142, "tree_id": 142, "crown_size": 5.44 }, "geometry": { "type": "Point", "coordinates": [ 122.581277732633026, 10.584458650500531 ] } },
{ "type": "Feature", "properties": { "fid": 143, "tree_id": 143, "crown_size": 6.05 }, "geometry": { "type": "Point", "coordinates": [ 122.581342348346737, 10.584470634706122 ] } },
{ "type": "Feature", "properties": { "fid": 144, "tree_id": 144, "crown_size": 7.74 }, "geometry": { "type": "Point", "coordinates": [ 122.581305773414471, 10.584414308935774 ] } },
{ "type": "Feature", "properties": { "fid": 145, "tree_id": 145, "crown_size": 7.7 }, "geometry": { "type": "Point", "coordinates": [ 122.581324670462834, 10.584364574470376 ] } },
{ "type": "Feature", "properties": { "fid": 146, "tree_id": 146, "crown_size": 20.56 }, "geometry": { "type": "Point", "coordinates": [ 122.58148499058268, 10.584365772891321 ] } },
{ "type": "Feature", "properties": { "fid": 147, "tree_id": 147, "crown_size": 17.24 }, "geometry": { "type": "Point", "coordinates": [ 122.581615441174549, 10.584453257607864 ] } },
{ "type": "Feature", "properties": { "fid": 148, "tree_id": 148, "crown_size": 19.38 }, "geometry": { "type": "Point", "coordinates": [ 122.581755645081657, 10.584538345458913 ] } },
{ "type": "Feature", "properties": { "fid": 149, "tree_id": 149, "crown_size": 17.66 }, "geometry": { "type": "Point", "coordinates": [ 122.581986067155071, 10.584686949536506 ] } },
{ "type": "Feature", "properties": { "fid": 150, "tree_id": 150, "crown_size": 6.56 }, "geometry": { "type": "Point", "coordinates": [ 122.581271027228823, 10.584358881970818 ] } },
{ "type": "Feature", "properties": { "fid": 151, "tree_id": 151, "crown_size": 5.6 }, "geometry": { "type": "Point", "coordinates": [ 122.581291143441618, 10.584301357758743 ] } },
{ "type": "Feature", "properties": { "fid": 152, "tree_id": 152, "crown_size": 6.28 }, "geometry": { "type": "Point", "coordinates": [ 122.581347225004436, 10.584304953022317 ] } },
{ "type": "Feature", "properties": { "fid": 153, "tree_id": 153, "crown_size": 7.49 }, "geometry": { "type": "Point", "coordinates": [ 122.581295410517001, 10.584242035903735 ] } },
{ "type": "Feature", "properties": { "fid": 154, "tree_id": 154, "crown_size": 6.55 }, "geometry": { "type": "Point", "coordinates": [ 122.581354539990869, 10.5842582145926 ] } },
{ "type": "Feature", "properties": { "fid": 155, "tree_id": 155, "crown_size": 13.3 }, "geometry": { "type": "Point", "coordinates": [ 122.581439271917347, 10.584183313248086 ] } },
{ "type": "Feature", "properties": { "fid": 156, "tree_id": 156, "crown_size": 14.3 }, "geometry": { "type": "Point", "coordinates": [ 122.581562407522711, 10.584249226432229 ] } },
{ "type": "Feature", "properties": { "fid": 157, "tree_id": 157, "crown_size": 20.38 }, "geometry": { "type": "Point", "coordinates": [ 122.581705049758668, 10.584325925392301 ] } },
{ "type": "Feature", "properties": { "fid": 158, "tree_id": 158, "crown_size": 15.4 }, "geometry": { "type": "Point", "coordinates": [ 122.581842815336955, 10.584408616437141 ] } },
{ "type": "Feature", "properties": { "fid": 159, "tree_id": 159, "crown_size": 15.74 }, "geometry": { "type": "Point", "coordinates": [ 122.581963512613513, 10.584499696402744 ] } },
{ "type": "Feature", "properties": { "fid": 160, "tree_id": 160, "crown_size": 15.21 }, "geometry": { "type": "Point", "coordinates": [ 122.582080552396846, 10.584563212678537 ] } },
{ "type": "Feature", "properties": { "fid": 161, "tree_id": 161, "crown_size": 8.28 }, "geometry": { "type": "Point", "coordinates": [ 122.581446586903837, 10.584083844234284 ] } },
{ "type": "Feature", "properties": { "fid": 162, "tree_id": 162, "crown_size": 6.95 }, "geometry": { "type": "Point", "coordinates": [ 122.581500230137848, 10.584109011096249 ] } },
{ "type": "Feature", "properties": { "fid": 163, "tree_id": 163, "crown_size": 15.74 }, "geometry": { "type": "Point", "coordinates": [ 122.581517298439593, 10.583998756257111 ] } },
{ "type": "Feature", "properties": { "fid": 164, "tree_id": 164, "crown_size": 19.61 }, "geometry": { "type": "Point", "coordinates": [ 122.581647749031418, 10.584126987424956 ] } },
{ "type": "Feature", "properties": { "fid": 165, "tree_id": 165, "crown_size": 16.76 }, "geometry": { "type": "Point", "coordinates": [ 122.581797706253809, 10.584206083258755 ] } },
{ "type": "Feature", "properties": { "fid": 166, "tree_id": 166, "crown_size": 15.14 }, "geometry": { "type": "Point", "coordinates": [ 122.581923280187993, 10.584287575914663 ] } },
{ "type": "Feature", "properties": { "fid": 167, "tree_id": 167, "crown_size": 16.9 }, "geometry": { "type": "Point", "coordinates": [ 122.582042758300176, 10.584367870127975 ] } },
{ "type": "Feature", "properties": { "fid": 168, "tree_id": 168, "crown_size": 8.65 }, "geometry": { "type": "Point", "coordinates": [ 122.581564845851602, 10.583896291126504 ] } },
{ "type": "Feature", "properties": { "fid": 169, "tree_id": 169, "crown_size": 7.93 }, "geometry": { "type": "Point", "coordinates": [ 122.581623365743269, 10.583929846962521 ] } },
{ "type": "Feature", "properties": { "fid": 170, "tree_id": 170, "crown_size": 19.26 }, "geometry": { "type": "Point", "coordinates": [ 122.581755035499512, 10.58401613338113 ] } },
{ "type": "Feature", "properties": { "fid": 171, "tree_id": 171, "crown_size": 16.44 }, "geometry": { "type": "Point", "coordinates": [ 122.581896458571023, 10.584091633977494 ] } },
{ "type": "Feature", "properties": { "fid": 172, "tree_id": 172, "crown_size": 16.48 }, "geometry": { "type": "Point", "coordinates": [ 122.582019594176415, 10.584169531398702 ] } },
{ "type": "Feature", "properties": { "fid": 173, "tree_id": 173, "crown_size": 15.69 }, "geometry": { "type": "Point", "coordinates": [ 122.582135414795317, 10.584242635114453 ] } },
{ "type": "Feature", "properties": { "fid": 174, "tree_id": 174, "crown_size": 15.25 }, "geometry": { "type": "Point", "coordinates": [ 122.582241482099008, 10.58432772302395 ] } },
{ "type": "Feature", "properties": { "fid": 175, "tree_id": 175, "crown_size": 6.21 }, "geometry": { "type": "Point", "coordinates": [ 122.581598982455105, 10.58382079048204 ] } },
{ "type": "Feature", "properties": { "fid": 176, "tree_id": 176, "crown_size": 6.89 }, "geometry": { "type": "Point", "coordinates": [ 122.581648968195921, 10.583854346326316 ] } },
{ "type": "Feature", "properties": { "fid": 177, "tree_id": 177, "crown_size": 5.28 }, "geometry": { "type": "Point", "coordinates": [ 122.581620927414505, 10.583784837787665 ] } },
{ "type": "Feature", "properties": { "fid": 178, "tree_id": 178, "crown_size": 5.45 }, "geometry": { "type": "Point", "coordinates": [ 122.581678228141769, 10.583802214923804 ] } },
{ "type": "Feature", "properties": { "fid": 179, "tree_id": 179, "crown_size": 19.07 }, "geometry": { "type": "Point", "coordinates": [ 122.581846472830321, 10.58387292188139 ] } },
{ "type": "Feature", "properties": { "fid": 180, "tree_id": 180, "crown_size": 15.05 }, "geometry": { "type": "Point", "coordinates": [ 122.581980580915385, 10.58396040673855 ] } },
{ "type": "Feature", "properties": { "fid": 181, "tree_id": 181, "crown_size": 16.99 }, "geometry": { "type": "Point", "coordinates": [ 122.582101278191942, 10.584044296304166 ] } },
{ "type": "Feature", "properties": { "fid": 182, "tree_id": 182, "crown_size": 14.87 }, "geometry": { "type": "Point", "coordinates": [ 122.582228071290544, 10.584118598471687 ] } },
{ "type": "Feature", "properties": { "fid": 183, "tree_id": 183, "crown_size": 16.84 }, "geometry": { "type": "Point", "coordinates": [ 122.582348768567101, 10.584196495886045 ] } },
{ "type": "Feature", "properties": { "fid": 184, "tree_id": 184, "crown_size": 6.82 }, "geometry": { "type": "Point", "coordinates": [ 122.581648663404863, 10.583743192578074 ] } },
{ "type": "Feature", "properties": { "fid": 185, "tree_id": 185, "crown_size": 5.77 }, "geometry": { "type": "Point", "coordinates": [ 122.581695601234642, 10.583758172869949 ] } },
{ "type": "Feature", "properties": { "fid": 186, "tree_id": 186, "crown_size": 8.87 }, "geometry": { "type": "Point", "coordinates": [ 122.581779723578876, 10.583751881147457 ] } },
{ "type": "Feature", "properties": { "fid": 187, "tree_id": 187, "crown_size": 11.56 }, "geometry": { "type": "Point", "coordinates": [ 122.58205982660202, 10.58385224908616 ] } },
{ "type": "Feature", "properties": { "fid": 188, "tree_id": 188, "crown_size": 16.28 }, "geometry": { "type": "Point", "coordinates": [ 122.582290248675434, 10.583988569666708 ] } },
{ "type": "Feature", "properties": { "fid": 189, "tree_id": 189, "crown_size": 7.87 }, "geometry": { "type": "Point", "coordinates": [ 122.581889448375819, 10.583747686665715 ] } },
{ "type": "Feature", "properties": { "fid": 190, "tree_id": 190, "crown_size": 7.21 }, "geometry": { "type": "Point", "coordinates": [ 122.581852263861336, 10.583706940268726 ] } },
{ "type": "Feature", "properties": { "fid": 191, "tree_id": 191, "crown_size": 7.01 }, "geometry": { "type": "Point", "coordinates": [ 122.581930899965769, 10.5837309087382 ] } },
{ "type": "Feature", "properties": { "fid": 192, "tree_id": 192, "crown_size": 6.03 }, "geometry": { "type": "Point", "coordinates": [ 122.581901640019936, 10.583691360762565 ] } },
{ "type": "Feature", "properties": { "fid": 193, "tree_id": 193, "crown_size": 11.85 }, "geometry": { "type": "Point", "coordinates": [ 122.582278666613632, 10.583830977078009 ] } },
{ "type": "Feature", "properties": { "fid": 194, "tree_id": 194, "crown_size": 13.95 }, "geometry": { "type": "Point", "coordinates": [ 122.582385953081712, 10.583902882451723 ] } }
]
}
